     2.100          NAVIGATION                              RINEX VERSION / TYPE
fic2rin                                 06/12/2015 00:38:05 PGM / RUN BY / DATE
                                                            END OF HEADER
14 15  6 11  2  0  0.0  .569457188249D-04 -.272848410532D-11  .000000000000D+00
     .880000000000D+02  .749375000000D+02  .457911931013D-08 -.115490270674D+01
     .391528010368D-05  .821204076055D-02  .575371086597D-05  .515360301399D+04
     .352800000000D+06  .108033418655D-06 -.144029449005D-01  .176951289177D-06
     .966863321784D+00  .274281250000D+03 -.197794897914D+01 -.831606068302D-08
     .600024993449D-10  .100000000000D+01  .184800000000D+04  .000000000000D+00
     .340000000000D+01  .000000000000D+00 -.931322574615D-08  .880000000000D+02
     .345606000000D+06  .400000000000D+01
15 15  6 11  2  0  0.0 -.254270620644D-03 -.216004991671D-11  .000000000000D+00
     .570000000000D+02  .853750000000D+02  .513092800946D-08 -.181216389899D+01
     .444054603577D-05  .714721088298D-02  .651925802231D-05  .515365563202D+04
     .352800000000D+06 -.204890966415D-07 -.138935768672D+00 -.651925802231D-07
     .933500053030D+00  .241000000000D+03  .392391927419D+00 -.839499254228D-08
     .149649090628D-09  .100000000000D+01  .184800000000D+04  .000000000000D+00
     .240000000000D+01  .000000000000D+00 -.107102096081D-07  .570000000000D+02
     .345606000000D+06  .400000000000D+01
16 15  6 11  2  0  0.0 -.120162963867D-03  .386535248253D-11  .000000000000D+00
     .101000000000D+03 -.253750000000D+02  .365765235590D-08 -.172123310244D+00
    -.112876296043D-05  .817790592555D-02  .109374523163D-04  .515357222748D+04
     .352800000000D+06  .106170773506D-06  .206939577761D+01  .409781932831D-07
     .990244512390D+00  .182218750000D+03  .310777192157D+00 -.780532512312D-08
     .175721605224D-09  .100000000000D+01  .184800000000D+04  .000000000000D+00
     .240000000000D+01  .000000000000D+00 -.102445483208D-07  .101000000000D+03
     .345606000000D+06  .400000000000D+01
17 15  6 11  2  0  0.0 -.175301916897D-03 -.159161572810D-11  .000000000000D+00
     .450000000000D+02  .159687500000D+02  .454161774804D-08 -.112039040800D+01
     .110454857349D-05  .101027966011D-01  .712089240551D-05  .515377470016D+04
     .352800000000D+06  .298023223877D-07  .309560741396D+01  .225380063057D-06
     .972926308229D+00  .249187500000D+03 -.200798123609D+01 -.810748056625D-08
     .458233372974D-09  .100000000000D+01  .184800000000D+04  .000000000000D+00
     .240000000000D+01  .000000000000D+00 -.107102096081D-07  .450000000000D+02
     .345606000000D+06  .400000000000D+01
18 15  6 11  2  0  0.0  .408415216953D-03  .295585778076D-11  .000000000000D+00
     .103000000000D+03  .145312500000D+02  .543272629486D-08  .406762623753D+00
     .933185219765D-06  .162962321192D-01  .110324472189D-04  .515361071968D+04
     .352800000000D+06 -.232830643654D-06 -.115844837983D+01  .800937414169D-07
     .924789497926D+00  .152812500000D+03 -.195756437726D+01 -.866321800066D-08
    -.337156901081D-09  .100000000000D+01  .184800000000D+04  .000000000000D+00
     .240000000000D+01  .000000000000D+00 -.111758708954D-07  .103000000000D+03
     .345606000000D+06  .400000000000D+01
19 15  6 11  2  0  0.0 -.513012055308D-03 -.102318153949D-11  .000000000000D+00
     .400000000000D+02  .818750000000D+01  .463519307440D-08 -.191174846016D+01
     .134110450745D-06  .114822475007D-01  .647827982903D-05  .515373218155D+04
     .352800000000D+06  .117346644402D-06 -.313804354850D+01 -.145286321640D-06
     .969996506099D+00  .256312500000D+03  .558616052692D+00 -.807712215884D-08
     .599667835715D-09  .100000000000D+01  .184800000000D+04  .000000000000D+00
     .240000000000D+01  .000000000000D+00 -.153668224812D-07  .400000000000D+02
     .345606000000D+06  .400000000000D+01
20 15  6 11  2  0  0.0  .328459311277D-03  .363797880709D-11  .000000000000D+00
     .250000000000D+02  .212500000000D+01  .518450166959D-08 -.156645039948D+01
     .115483999252D-06  .559695856646D-02  .106170773506D-04  .515582951355D+04
     .352800000000D+06  .111758708954D-06 -.121080289999D+01  .109896063805D-06
     .925956009785D+00  .156375000000D+03  .122308619216D+01 -.825284376407D-08
    -.281440294547D-09  .100000000000D+01  .184800000000D+04  .000000000000D+00
     .240000000000D+01  .000000000000D+00 -.838190317154D-08  .250000000000D+02
     .345606000000D+06  .400000000000D+01
21 15  6 11  2  0  0.0 -.454181805253D-03 -.341060513165D-11  .000000000000D+00
     .130000000000D+02 -.563437500000D+02  .560559063821D-08  .150829251695D+01
    -.325776636600D-05  .224837608403D-01  .692345201969D-05  .515380434608D+04
     .352800000000D+06 -.460073351860D-06 -.220207595497D+01 -.411644577980D-06
     .933867167933D+00  .240406250000D+03 -.190259059883D+01 -.870000524728D-08
    -.175721605224D-09  .100000000000D+01  .184800000000D+04  .000000000000D+00
     .240000000000D+01  .000000000000D+00 -.116415321827D-07  .130000000000D+02
     .345606000000D+06  .400000000000D+01
23 15  6 11  2  0  0.0 -.114059541374D-03 -.238742359215D-11  .000000000000D+00
     .590000000000D+02  .840625000000D+02  .484055877156D-08 -.228114680882D+01
     .418908894062D-05  .102853345452D-01  .689737498760D-05  .515360754013D+04
     .352800000000D+06  .186264514923D-07 -.865267021502D-01 -.173225998878D-06
     .948677291211D+00  .239468750000D+03 -.267279974609D+01 -.825320092180D-08
     .247510309798D-09  .100000000000D+01  .184800000000D+04  .000000000000D+00
     .240000000000D+01  .000000000000D+00 -.200234353542D-07  .590000000000D+02
     .345606000000D+06  .400000000000D+01
24 15  6 11  2  0  0.0 -.497354194522D-04 -.568434188608D-12  .000000000000D+00
     .460000000000D+02 -.220000000000D+02  .469019536546D-08 -.303166180180D+01
    -.112131237984D-05  .323888147250D-02  .450573861599D-05  .515367215729D+04
     .352800000000D+06 -.298023223877D-07  .940086237497D+00 -.130385160446D-07
     .953342857345D+00  .289281250000D+03  .361099726419D+00 -.836070539980D-08
    -.175007289756D-09  .100000000000D+01  .184800000000D+04  .000000000000D+00
     .240000000000D+01  .000000000000D+00  .232830643654D-08  .460000000000D+02
     .345606000000D+06  .400000000000D+01
25 15  6 11  2  0  0.0 -.384999439120D-04 -.409272615798D-11  .000000000000D+00
     .490000000000D+02 -.199687500000D+02  .395409327528D-08  .122544941051D+01
    -.122003257275D-05  .465811579488D-02  .983476638794D-05  .515367314911D+04
     .352800000000D+06 -.484287738800D-07  .200390142674D+01  .260770320892D-07
     .978164246913D+00  .197937500000D+03  .737906757441D+00 -.786961351528D-08
     .389301930274D-10  .100000000000D+01  .184800000000D+04  .000000000000D+00
     .240000000000D+01  .000000000000D+00  .558793544769D-08  .490000000000D+02
     .345606000000D+06  .400000000000D+01
26 15  6 11  2  0  0.0  .298102386296D-04 -.159161572810D-11  .000000000000D+00
     .960000000000D+02 -.260000000000D+02  .423910514717D-08 -.599702608729D+00
    -.130757689476D-05  .327471061610D-03  .106152147055D-04  .515359134102D+04
     .352800000000D+06  .279396772385D-07  .200106795923D+01  .111758708954D-07
     .960278737750D+00  .174562500000D+03  .122853967427D+01 -.800247619240D-08
     .116433421348D-09  .100000000000D+01  .184800000000D+04  .000000000000D+00
     .340000000000D+01  .000000000000D+00  .745058059692D-08  .960000000000D+02
     .345606000000D+06  .400000000000D+01
27 15  6 11  2  0  0.0  .783153809607D-04  .272848410532D-11  .000000000000D+00
     .300000000000D+02  .157500000000D+02  .466162274673D-08 -.106510327106D+01
     .756233930588D-06  .252141163219D-02  .685639679432D-05  .515368796539D+04
     .352800000000D+06  .558793544769D-07  .304776900969D+01 -.521540641785D-07
     .967821794988D+00  .248781250000D+03  .242489751780D+00 -.818284084817D-08
     .508949771229D-09  .100000000000D+01  .184800000000D+04  .000000000000D+00
     .240000000000D+01  .000000000000D+00  .139698386192D-08  .300000000000D+02
     .345606000000D+06  .400000000000D+01
29 15  6 11  2  0  0.0  .615939032286D-03  .227373675443D-11  .000000000000D+00
     .590000000000D+02  .135937500000D+02  .456590447396D-08  .148166899810D+01
     .640749931335D-06  .121212482918D-02  .662356615067D-05  .515374647522D+04
     .352800000000D+06  .558793544769D-07  .310498001264D+01  .223517417908D-07
     .973777649016D+00  .263531250000D+03 -.558581494178D+00 -.809247994141D-08
     .410731394325D-09  .100000000000D+01  .184800000000D+04  .000000000000D+00
     .240000000000D+01  .000000000000D+00 -.977888703346D-08  .590000000000D+02
     .345606000000D+06  .400000000000D+01
30 15  6 11  2  0  0.0 -.457870773971D-04  .648014975013D-11  .000000000000D+00
     .530000000000D+02 -.320937500000D+02  .471341061819D-08  .255284189140D+01
    -.164285302162D-05  .147933710832D-02  .460259616375D-05  .515373288155D+04
     .352800000000D+06  .409781932831D-07  .103035050955D+01 -.745058059692D-07
     .955847896822D+00  .288906250000D+03  .290972965577D+01 -.836249118847D-08
    -.275368613065D-09  .100000000000D+01  .184800000000D+04  .000000000000D+00
     .240000000000D+01  .000000000000D+00  .325962901115D-08  .530000000000D+02
     .345606000000D+06  .400000000000D+01
32 15  6 11  2  0  0.0 -.128533225507D-03  .966338120634D-11  .000000000000D+00
     .590000000000D+02  .262187500000D+02  .462412118464D-08  .290343609149D+01
     .113621354103D-05  .112454012269D-01  .128485262394D-04  .515375838470D+04
     .352800000000D+06 -.176951289177D-06 -.105607223596D+01 -.372529029846D-08
     .946715970109D+00  .121187500000D+03  .570062558651D-01 -.787568519676D-08
    -.205008539429D-09  .100000000000D+01  .184800000000D+04  .000000000000D+00
     .240000000000D+01  .000000000000D+00 -.372529029846D-08  .590000000000D+02
     .345606000000D+06  .400000000000D+01
